IRIDIUM 39              
1 25042U 97069D   25265.68874583  .00000922  00000+0  23590-3 0  9997
2 25042  86.3982 169.3714 0017426 348.4639  11.6164 14.49336778463081
IRIDIUM 38              
1 25043U 97069E   25265.85612708  .00000878  00000+0  28274-3 0  9990
2 25043  86.4027 192.0907 0003726 109.0859 251.0743 14.38200100459998
IRIDIUM 42              
1 25077U 97077A   25265.77342579  .00000679  00000+0  22505-3 0  9993
2 25077  86.4023 198.4075 0002581 102.3458 257.8029 14.36428104455201
IRIDIUM 44              
1 25078U 97077B   25265.81180467  .00000673  00000+0  20604-3 0  9997
2 25078  86.4034 180.0831 0004054  76.9660 283.1992 14.40323237457758
IRIDIUM 45              
1 25104U 97082A   25265.76124531  .00028891  00000+0  94650-3 0  9991
2 25104  86.3630   0.3934 0107176 325.7928  33.6443 15.26028586466908
IRIDIUM 24              
1 25105U 97082B   25265.79771478  .00000872  00000+0  25854-3 0  9992
2 25105  86.3919  38.8679 0013358 112.0723 248.1897 14.42193583457283
IRIDIUM 51              
1 25262U 98018A   25265.77217301  .00083044  00000+0  14637-2 0  9992
2 25262  86.3860   7.2675 0073607 232.2131 127.2447 15.47077969462075
IRIDIUM 57              
1 25273U 98019B   25265.80180989  .00000452  00000+0  14890-3 0  9994
2 25273  86.3908 104.3537 0002212  89.8407 270.3043 14.35952891438798
